[
  {
    "name": "Forum für Kreativität und Kommunikation e.V.",
    "short": "ffk",
    "number": "004",
    "street": "Markgrafenstraße 3",
    "zip": "33602",
    "city": "Bielefeld",
    "mail": "mail",
    "phone": "phone",
    "contact": "contact",
    "id": "c_01"
  },
  {
    "name": "wirmachenbunt GmbH & Co. KG",
    "short": "wmb",
    "street": "Fuhlsbüttlerstraße 415a",
    "zip": "22309",
    "city": "Hamburg",
    "number": "005",
    "mail": "mail",
    "phone": "phone",
    "contact": "contact",
    "id": "c_02"
  },
  {
    "name": "Young Urban Performances",
    "short": "yup",
    "street": "Große Gildewart 6-9",
    "zip": "49074",
    "city": "Osnabrück",
    "number": "006",
    "mail": "mail",
    "phone": "phone",
    "contact": "contact",
    "id": "c_03"
  },
  {
    "name": "Young Urban Performances",
    "short": "yup",
    "street": "Große Gildewart 6-9",
    "zip": "49074",
    "city": "Osnabrück",
    "number": "006",
    "mail": "mail",
    "phone": "phone",
    "contact": "contact",
    "id": "c_03"
  },
  {
    "name": "Jihae An",
    "short": "ji",
    "street": "Kirchenweg 22",
    "zip": "24143 ",
    "city": "Kiel",
    "number": "007",
    "mail": "mail",
    "phone": "phone",
    "contact": "contact",
    "id": "c_04"
  },
  {
    "name": "Netzwerk für Revolutionäre Ungeduld",
    "short": "nru",
    "street": "Kirchenweg 22",
    "zip": "24143 ",
    "city": "Kiel",
    "number": "008",
    "mail": "mail",
    "phone":"phone",
    "contact":"contact",
    "id":"c_05"
  },
  {
    "name": "Muthesius Kunstchochschule",
    "short": "mkh",
    "street": "Legienstraße 35",
    "zip": "24103",
    "city": "Kiel",
    "number": "009",
    "mail": "mail",
    "phone":"phone",
    "contact":"contact",
    "id":"c_06"
  },
  {
    "name": "Marius Eschkötter",
    "short": "steasy",
    "street": "Westring 277",
    "zip": "24116",
    "city": "Kiel",
    "number": "010",
    "mail": "mail",
    "phone":"phone",
    "contact":"contact",
    "id":"c_07"
  },
  {
    "name": "Maren Zünkler",
    "short": "maren",
    "street": "Paul-Fleming-Str. 10",
    "zip": "24114",
    "city": "Kiel",
    "number": "011",
    "mail": "mail",
    "phone":"phone",
    "contact":"contact",
    "id":"c_08"
  },
  {
    "name": "f* Nast",
    "short": "nast",
    "street": "Borselstraße 9b, \nHinterhof Nr. 11",
    "zip": "22765",
    "city": "Hamburg",
    "number": "012",
    "mail": "mail",
    "phone":"phone",
    "contact":"contact",
    "id":"c_09"
  },
  {
    "name": "Jonathan Simon-Weidner",
    "short": "jojo",
    "street": "Von-der-Horst-Straße 10",
    "zip": "24113",
    "city": "Kiel",
    "number": "013",
    "mail": "mail",
    "phone":"phone",
    "contact":"contact",
    "id":"c_001"
  },
  {
    "name": "Design Academy Eindhoven ",
    "short": "eindhoven",
    "street": "Emmasingel 14",
    "zip": "5611",
    "city": "AZ Eindhoven\n",
    "number": "014",
    "mail": "mail",
    "phone":"phone",
    "contact":"contact",
    "id":"c_002"
  },
  {
    "name": "Kaspar Pansegrau",
    "short": "Kaspar",
    "street": "Holtenauer Straße 196",
    "zip": "24105",
    "city": "Kiel",
    "number": "015",
    "mail": "mail",
    "phone":"phone",
    "contact":"contact",
    "id":"c_003"
  },
  {
    "name": "Benjamin Unterluggauer",
    "short": "leuys",
    "street": "Sternstraße 21",
    "zip": "24103",
    "city": "Kiel",
    "number": "016",
    "mail": "mail",
    "phone":"phone",
    "contact":"contact",
    "id":"c_004"
  }
]